GALAXY 25 (G-25)        
1 24812C 97026A   23191.00000000  .00000186  00000-0  00000-0 0  1916
2 24812   4.6632  79.7365 0013335  19.1574  20.7417  0.99039281    12
INTELSAT 5 (IS-5)   [PM]
1 24916C 97046A   23181.00000000  .00000034  00000-0  00000-0 0  1813
2 24916   8.0377  58.2842 0005152  63.9991 321.6585  1.00275698    17
INTELSAT 5 (IS-5)       
1 24916C 97046A   23191.00000000  .00000034  00000-0  00000-0 0  1915
2 24916   8.0580  58.2114 0004695  74.1972 321.3598  1.00275987    11
GALAXY 11 (G-11)        
1 26038C 99071A   23190.88405093 -.00000072  00000-0  00000-0 0  1900
2 26038   3.9821  83.3486 0002357  98.2766 331.0510  1.00271143    14
INTELSAT 9 (IS-9)       
1 26451C 00043A   23191.00000000 -.00000191  00000-0  00000-0 0  1917
2 26451   8.0429  58.3975 0001601 300.4010 238.8301  1.00275178    13
INTELSAT 9 (IS-9)   [PM]
1 26451C 00043A   23191.77101852 -.00000191  00000-0  00000-0 0  1918
2 26451   8.0444  58.4120 0004371  17.1196  80.4662  1.00268710    12
INTELSAT 1R (IS-1R)     
1 26608C 00072A   23190.88405093 -.00000047  00000-0  00000-0 0  1908
2 26608   5.4419  75.9783 0002000 115.6569 211.2545  1.00270567    10
INTELSAT 10 (IS-10) [PM]
1 26766C 01019A   23186.55839120  .00000127  00000-0  00000-0 0  1869
2 26766   6.4884  70.0020 0002191  13.6153 218.4808  1.00271087    18
INTELSAT 10 (IS-10)     
1 26766C 01019A   23191.00000000  .00000127  00000-0  00000-0 0  1918
2 26766   6.4993  69.9074 0004366  38.1159 357.3952  1.00273931    12
INTELSAT 901            
1 26824C 01024A   23191.00000000 -.00000112  00000-0  00000-0 0  1914
2 26824   0.0441 263.2989 0000910 228.4967 128.3590  1.00270113    14
INTELSAT 902            
1 26900C 01039A   23191.00000000 -.00000192  00000-0  00000-0 0  1913
2 26900   3.3841  84.6443 0002467   7.9549 144.9600  1.00271934    12
INTELSAT 902        [PM]
1 26900C 01039A   23197.80104167 -.00000192  00000-0  00000-0 0  1972
2 26900   3.4031  84.6032 0002611  20.7985  67.2311  1.00272487    16
INTELSAT 904            
1 27380C 02007A   23191.00000000 -.00000123  00000-0  00000-0 0  1916
2 27380   4.2094  81.7440 0002425   9.4885 166.9169  1.00273482    18
INTELSAT 904        [PM]
1 27380C 02007A   23202.84138889 -.00000123  00000-0  00000-0 0  2021
2 27380   4.2355  81.6509 0003051  25.1554 105.9264  1.00271437    14
INTELSAT 905            
1 27438C 02027A   23191.00000000 -.00000094  00000-0  00000-0 0  1919
2 27438   4.0330  82.4196 0002393   2.1885 178.5354  1.00273465    19
INTELSAT 905        [PM]
1 27438C 02027A   23191.65394676 -.00000094  00000-0  00000-0 0  1915
2 27438   4.0350  82.4007 0003136  21.0680  35.7464  1.00272976    13
GALAXY 3C (G-3C)        
1 27445C 02030A   23190.88405093 -.00000062  00000-0  00000-0 0  1901
2 27445   0.9493  90.4261 0001919 106.8120 313.6935  1.00270508    13
INTELSAT 906        [PM]
1 27513C 02041A   23188.03730324  .00000105  00000-0  00000-0 0  1885
2 27513   3.0479  86.1018 0004071  14.4899 261.7207  1.00269219    10
INTELSAT 906            
1 27513C 02041A   23191.00000000  .00000105  00000-0  00000-0 0  1911
2 27513   3.0559  85.9908 0003711  16.9140 248.8833  1.00270964    10
GALAXY 12 (G-12)        
1 27715C 03013B   23191.00000000  .00000187  00000-0  00000-0 0  1915
2 27715   4.2434  81.4418 0002319  21.9139  47.2005  1.00272563    12
GALAXY 12 (G-12)    [PM]
1 27715C 03013B   23192.69605324  .00000187  00000-0  00000-0 0  1922
2 27715   4.2493  81.4201 0001656  45.8391 275.5579  1.00268963    16
GALAXY 23 (G-23)        
1 27854C 03034A   23191.00000000  .00000103  00000-0  00000-0 0  1910
2 27854   0.4167  94.1796 0002843  17.9707  54.4933  1.00271754    16
GALAXY 23 (G-23)    [PM]
1 27854C 03034A   23204.52928241  .00000103  00000-0  00000-0 0  2043
2 27854   0.4471  94.1487 0002976  30.3939 246.0958  1.00271404    12
GALAXY 13               
1 27954C 03044A   23191.00000000  .00000138  00000-0  00000-0 0  1910
2 27954   0.0361 271.0332 0001974 213.7440  35.8712  1.00273041    14
GALAXY 13           [PM]
1 27954C 03044A   23191.57559028  .00000137  00000-0  00000-0 0  1910
2 27954   0.0327 278.0522 0001973 207.8685 242.5080  1.00272998    13
INTELSAT 10-02          
1 28358C 04022A   23190.88405093  .00000090  00000-0  00000-0 0  1908
2 28358   0.0115  78.0594 0001045  78.6377  88.0874  1.00268726    14
GALAXY 28 (G-28)        
1 28702C 05022A   23190.88405093 -.00000095  00000-0  00000-0 0  1908
2 28702   0.5213  91.4991 0001612  70.0107 355.2796  1.00271674    16
GALAXY 28 (G-28)    [PM]
1 28702C 05022A   23191.96642361 -.00000095  00000-0  00000-0 0  1910
2 28702   0.5249  91.3893 0001627  72.8021  23.3188  1.00271811    17
GALAXY 14 (G-14)        
1 28790C 05030A   23191.00000000  .00000245  00000-0  00000-0 0  1915
2 28790   2.2465  87.9064 0001033  23.6642 208.9890  1.00274653    16
GALAXY 14 (G-14)    [PM]
1 28790C 05030A   23192.68055556  .00000245  00000-0  00000-0 0  1927
2 28790   2.2521  87.8667 0001573   7.9489 111.3915  1.00268988    19
GALAXY 16 (G-16)        
1 29236C 06023A   23191.00000000 -.00000042  00000-0  00000-0 0  1910
2 29236   0.0380 226.0479 0002008 283.8837  38.7247  1.00270493    12
GALAXY 16 (G-16)    [PM]
1 29236C 06023A   23192.23496528 -.00000037  00000-0  00000-0 0  1925
2 29236   0.0581 261.8347 0002247 252.3241 120.2945  1.00273041    15
GALAXY 17 (G-17)        
1 31307C 07016B   23191.00000000 -.00000116  00000-0  00000-0 0  1917
2 31307   0.2409  94.0937 0002019  52.1956  56.3613  1.00270405    17
GALAXY 17 (G-17)    [PM]
1 31307C 07016B   23191.95064815 -.00000116  00000-0  00000-0 0  1915
2 31307   0.2440  93.8594 0001916  52.9603  38.9966  1.00272089    17
INTELSAT 11 (IS-11)     
1 32253C 07044B   23191.00000000 -.00000178  00000-0  00000-0 0  1917
2 32253   0.7761  91.9866 0003070  28.0135 124.6504  1.00271112    14
INTELSAT 11 (IS-11) [PM]
1 32253C 07044B   23192.85418981 -.00000178  00000-0  00000-0 0  1923
2 32253   0.7824  91.8592 0002975  28.4074  73.7145  1.00272468    18
HORIZONS-2              
1 32388C 07063B   23191.00000000 -.00000163  00000-0  00000-0 0  1911
2 32388   0.0127 323.4495 0002493 161.3557  89.0488  1.00269808    14
HORIZONS-2          [PM]
1 32388C 07063B   23193.86343750 -.00000201  00000-0  00000-0 0  1934
2 32388   0.0044   5.8055 0002192 118.6894  42.9977  1.00273001    11
GALAXY 18 (G-18)        
1 32951C 08024A   23191.00000000  .00000117  00000-0  00000-0 0  1913
2 32951   0.0195 298.4518 0002981 178.1490  48.0433  1.00272816    14
GALAXY 18 (G-18)    [PM]
1 32951C 08024A   23193.54652778  .00000087  00000-0  00000-0 0  1937
2 32951   0.0042 351.6155 0002834 124.7844 247.5219  1.00270505    12
INTELSAT 25 (IS-25) [PM]
1 33153C 08034A   23189.94427083 -.00000134  00000-0  00000-0 0  1890
2 33153   0.0218 298.4294 0002933 150.9421 145.6755  1.00271930    12
INTELSAT 25 (IS-25)     
1 33153C 08034A   23191.00000000 -.00000132  00000-0  00000-0 0  1917
2 33153   0.0041  11.2975 0002835 100.0293 144.8241  1.00272054    16
GALAXY 19 (G-19)        
1 33376C 08045A   23191.00000000 -.00000051  00000-0  00000-0 0  1916
2 33376   0.0050 342.9002 0002961 141.4459  66.2984  1.00271403    19
GALAXY 19 (G-19)    [PM]
1 33376C 08045A   23192.48689815 -.00000162  00000-0  00000-0 0  1920
2 33376   0.0017   7.6188 0002894 120.2464 239.5272  1.00272044    15
INTELSAT 14 (IS-14)     
1 36097C 09064A   23191.00000000 -.00000183  00000-0  00000-0 0  1917
2 36097   0.0020  26.2622 0002362  91.9888 124.4099  1.00271743    10
INTELSAT 14 (IS-14) [PM]
1 36097C 09064A   23193.86572917 -.00000189  00000-0  00000-0 0  1932
2 36097   0.0096  50.8147 0002239  69.4129  76.9171  1.00272750    10
INTELSAT 15 (IS-15)     
1 36106C 09067A   23191.00000000 -.00000095  00000-0  00000-0 0  1913
2 36106   0.0225  54.3245 0002064  62.8702 255.6096  1.00271941    16
INTELSAT 15 (IS-15) [PM]
1 36106C 09067A   23194.53899306 -.00000095  00000-0  00000-0 0  1942
2 36106   0.0150   0.0621 0002017 117.3316  92.9246  1.00272300    13
INTELSAT 16 (IS-16)     
1 36397C 10006A   23191.00000000 -.00000155  00000-0  00000-0 0  1917
2 36397   0.0192 329.8279 0002280 166.5635  75.0611  1.00269267    10
INTELSAT 16 (IS-16) [PM]
1 36397C 10006A   23192.93835648 -.00000155  00000-0  00000-0 0  1925
2 36397   0.0170 342.0200 0002061 152.6787  56.4548  1.00272926    16
INTELSAT 17 (IS-17)     
1 37238C 10065B   23191.00000000  .00000084  00000-0  00000-0 0  1917
2 37238   0.0383 212.8004 0002485 267.8606 232.9962  1.00271860    19
INTELSAT 17 (IS-17) [PM]
1 37238C 10065B   23193.05754630  .00000030  00000-0  00000-0 0  1932
2 37238   0.0176 269.8695 0002372 210.1144 256.4189  1.00270611    15
INTELSAT NEW DAWN   [PM]
1 37392C 11016A   23190.39012732  .00000248  00000-0  00000-0 0  1902
2 37392   0.0000  88.4716 0000755  40.1641 331.6707  1.00269759    10
INTELSAT NEW DAWN       
1 37392C 11016A   23191.00000000 -.00002760  00000-0  00000-0 0  1919
2 37392   0.0016  86.3152 0000754  44.9365 189.2055  1.00270540    15
INTELSAT 18 (IS-18)     
1 37834C 11056A   23191.00000000  .00000143  00000-0  00000-0 0  1916
2 37834   0.0044 355.6077 0001739 121.4007 350.6406  1.00271667    18
INTELSAT 18 (IS-18) [PM]
1 37834C 11056A   23193.71392361  .00000082  00000-0  00000-0 0  1934
2 37834   0.0055  34.6318 0001635  80.7087 251.9986  1.00270507    10
INTELSAT 22 (IS-22)     
1 38098C 12011A   23191.00000000  .00000032  00000-0  00000-0 0  1918
2 38098   0.0216  85.0361 0002483  36.1617 238.5596  1.00272152    12
INTELSAT 22 (IS-22) [PM]
1 38098C 12011A   23200.61666667  .00000036  00000-0  00000-0 0  2008
2 38098   0.0083  86.3097 0002351  43.6553 101.2526  1.00273135    11
INTELSAT 19 (IS-19)     
1 38356C 12030A   23191.00000000  .00000034  00000-0  00000-0 0  1918
2 38356   0.0048 356.5934 0002825 120.4850 336.5806  1.00272165    17
